#dP2023 10  7  6  0  0.00000000      96 __u+U ITR00 EXT  IAC
## 2282 540000.00000000   900.00000000 60224 0.2500000000000
+  120   C06C07C08C09C10C11C12C13C14C16C19C20C21C22C23C24C25
+        C26C27C28C29C30C32C33C34C35C36C37C38C39C40C41C42C43
+        C44C45C46E02E03E04E05E07E08E09E10E11E12E13E14E15E18
+        E19E21E24E25E26E27E30E31E33E34E36G01G02G03G04G05G06
+        G07G08G09G10G11G12G13G14G15G16G17G18G19G20G21G22G23
+        G24G25G26G27G28G29G30G31G32J02J03J04R01R02R03R04R05
+        R07R08R09R11R12R13R14R15R16R17R18R19R20R21R22R24R25
+        R26  0  0  0  0  0  0  0  0  0  0  0  0  0  0  0  0
++         9 10 10 10 10  9  9  9  9  9  9  7  8  7  9  8  9
++         9  8 10  9  9  8  9  8  9  8  9 10 10  9  9  9  9
++         8  9  9  8  8  7  8  8  7  8  8  9  8 10  8 10  8
++         8  8  8  8 10  8  8  8 10 10 10  8  8  8  7  7  8
++         7  8  7  8 10  8  7  8  8  8  8 10  8  8  8  8  8
++         7  8  7  8  7  8  7  8  9 11 10  9  9  8  9  8  8
++         8  8  9  9  9  9  8  7  8  8  7  9  9  9  9  8  9
++        10  0  0  0  0  0  0  0  0  0  0  0  0  0  0  0  0
%c M  cc GPS ccc cccc cccc cccc cccc ccccc ccccc ccccc ccccc
%c cc cc ccc ccc cccc cccc cccc cccc ccccc ccccc ccccc ccccc
%f  0.0000000  0.000000000  0.00000000000  0.000000000000000
%f  0.0000000  0.000000000  0.00000000000  0.000000000000000
%i    0    0    0    0      0      0      0      0         0
%i    0    0    0    0      0      0      0      0         0
/* IAC                                ULTRA-RAPID PREDICTION
/* S/V CLOCKS ARE ALIGNED TO GNSS TIME                      
/* G:C1WC2W R:C1PC2P E:C1XC5X C:C2IC6I J:C1CC2S             
/* PCV:IGS20_2280 OL/AL:FES2004  NONE     YN ORB:CoN CLK:CoN
*  2023 10 07  8 30  0.00000000
PC06  -1824.369467  26150.435859  33102.267569     45.136135
PC07 -18522.413332  33948.376457 -16947.183635   -120.008713
PC08  -5159.912666  39406.443647 -13766.841205    309.213707
PC09   4755.451334  28771.609256  31073.892559     72.782526
PC10 -11245.158239  34034.344517 -22276.155345   -203.210439
PC11  -3324.080971  15014.054554 -23213.238087    190.895457
PC12 -21779.375359   5832.141998 -16411.562700    907.544282
PC13   -691.257717  41322.037313  -7394.392484    363.736297
PC14 -10422.671619  23148.227542  11652.684376    541.587751
PC16  -8225.288172  22973.848345  34649.253384   -114.323348
PC19   1860.086097 -20693.184735 -18608.101196   -971.251739
PC20  16248.105411 -22215.138316  -4528.182159    223.752234
PC21 -22083.631335  10367.603331 -13562.523971   -969.799432
PC22 -14438.109994  -7182.330992 -22789.750491   -276.576910
PC23  15623.403760  19344.334097 -12652.897163   -851.057691
PC24  -8171.939250  19021.931746  18689.074494    469.024443
PC25   6498.088015  26901.368747   3481.650157    227.482177
PC26 -16603.107038   1176.775740  22387.451426   -188.217150
PC27  26292.611872   -514.189179   9327.275846    209.926612
PC28  24889.707558  10658.557505  -6732.129241    157.844049
PC29  -8050.876303 -16530.137314  20991.830050    184.460729
PC30  13798.234389 -12259.779713  20929.432582     -6.082802
PC32  21987.190886 -10406.640105  13673.272896   -529.093183
PC33  -1834.957137  20789.516515  18524.758539   -957.910260
PC34 -12304.396773  12957.161052 -21440.040452    275.733751
PC35 -25255.306263  -9742.678785   6711.471797    530.610940
PC36  -5310.472434 -27067.103685  -4251.199734   -191.134013
PC37  16801.863699     36.286900 -22264.522967   -846.497975
PC38  -9924.399640  35398.273206 -20459.277457    109.571938
PC39 -12890.387711  20521.936131  34532.197951     -5.114680
PC40 -25984.016318  28970.971241 -16534.524471    -39.205407
PC41  13948.214945   7875.744282  22894.037014   -874.077342
PC42 -17099.014076  21855.042962   3100.941109   -527.989852
PC43   7018.330298  16684.948542 -21249.295149     42.930928
PC44 -26313.251871   1468.088734  -9150.930888    254.158362
PC45 -15714.361438 -18963.247201  13148.530932    -33.499096
PC46   7285.203640 -20006.847183 -18061.507890    -89.950665
PE02   2009.126287 -28359.714292   8270.312263     68.383873
PE03   -240.245827 -17340.373221 -23997.445496    -62.760369
PE04  20573.010810   8662.262557  19438.809242   -228.738062
PE05  20224.086154 -15936.461280 -14605.764998     25.171142
PE07 -28949.921514   4918.020333  -3764.723557    -80.285417
PE08 -20147.642804  -8845.051970 -19811.108758   -157.653747
PE09  28925.803170  -4874.678148   3910.945938   -182.680715
PE10  23768.751668  13332.676697  11528.219144   -569.300692
PE11  21814.316850   4019.623475  19591.802312   3053.393068
PE12  21893.709737  19764.945114   2524.441563   -726.770638
PE13 -22047.630600  -4711.810674 -19178.084782    -19.724467
PE14 -10533.559763  20699.990938 -21802.693453    361.609881
PE15 -21747.027376 -19977.778744  -2069.552060    -59.202316
PE18  -4046.702075 -15578.086813  19044.813995    616.319154
PE19  -2755.270165  17624.467746  23620.052750  -1476.719774
PE21 -13601.747854  24475.827380   9598.280159   -556.957315
PE24  17965.928252  -5491.872222 -22888.410770   -362.175886
PE25  13762.940868 -24260.335874  -9907.557910     -2.883113
PE26  -8969.312843  13736.485204 -24631.585214    244.105990
PE27 -17931.101942   6162.231424  22734.967388   -168.418322
PE30 -11421.474409 -15994.887107  22133.163178   -559.910626
PE31  11645.020111  15554.649766 -22316.958529     -6.955870
PE33   8173.166424  23194.580349 -16458.494641      0.112030
PE34  -8783.555357 -23322.762030  15982.022766    -71.045379
PE36   9445.185288 -13088.775768  24815.227091   -126.498677
PG01  20931.606148  13571.992076   9251.880531    164.063985
PG02  21368.815468  15690.176603   3305.610485   -545.064334
PG03  13815.153842   5142.574729  21948.826285    -93.453170
PG04  24606.687258   1835.070789   9997.973386    177.432363
PG05  -7426.400511 -19223.743667 -16885.218831   -145.559551
PG06    972.902024 -17801.676698  19722.643610    535.827869
PG07  17430.458796  -2088.486628 -19594.208682     47.045631
PG08  18421.853953   7804.398648 -17742.597054   -145.874408
PG09  25781.217450  -6434.733633    913.323380    -39.337154
PG10 -10883.501755  23180.634248  -6183.289452    -56.347284
PG11 -10011.685053 -22325.579631  10414.741388   -403.784251
PG12 -12491.763713  -9042.134911  21360.514331   -433.123315
PG13  -9311.828821 -13543.604944 -21106.140256    581.184254
PG14  13511.998439 -20822.292520  -9186.130083    206.822828
PG15 -19811.049228  -5739.832859 -17347.082340     84.703463
PG16   1618.817889  22594.840014 -13797.428924   -442.985174
PG17  18456.887787 -13307.108651  14232.256926    723.860910
PG18 -15693.500806   4127.655183 -21055.113588   -441.121973
PG19  10534.163594 -14686.972101  19141.888023    381.602888
PG20  -1724.469703 -25853.953520  -6227.767746    408.085117
PG21  20496.296785  17666.520363     81.884732    147.329810
PG22  10632.594704 -24416.899219  -1612.909337    107.590851
PG23 -15205.886843  13767.804782 -16764.621751     79.001715
PG24 -21783.938007 -15014.082781   3808.946766   -339.614964
PG25 -16201.781908   5916.016156  19806.697171    471.517847
PG26  -3006.956273  26017.599545  -3174.734738    224.606905
PG27   5637.987361  14248.311426 -21967.306690    -51.323574
PG28  -2546.671196  17075.696400  20161.586524    -21.248058
PG29 -26303.203906   4015.408991    706.223720   -609.907844
PG30  10004.044982 -12181.136750 -21243.068439   -480.948309
PG31   5662.260156  21192.642541  14478.694694   -224.344229
PG32 -14062.451105  15519.862837  16390.915101   -569.140748
PJ02 -31380.884121  26092.226768  15570.783554     -5.247734
PJ03 -26148.137755  16490.081719 -24065.238098     -4.457036
PJ04 -25483.129927  33569.595855   2111.713746     71.013225
PR01  17449.249235  -2651.195485  18407.188907     67.179595
PR02  21204.977477 -13953.410994   2912.394079    -22.388904
PR03  12324.531877 -17478.749282 -13913.967628     86.617978
PR04  -2866.141840 -11054.580089 -22789.035733    205.829732
PR05 -16629.167196   1101.469208 -19295.303073    120.221776
PR07 -11555.278549  17336.512387  14709.780183     66.305366
PR08   3266.245941  10993.940701  22832.096196    -72.848653
PR09  -9071.073831  10687.061792  21349.876924    146.296722
PR11   6331.672534  23867.571559  -6419.414486   -187.895244
PR12  11287.451329   9225.417291 -20900.440565     32.085119
PR13   9594.605067  -8239.215872 -22163.100900    -39.955195
PR14   1516.769947 -23563.504494  -9611.709071     25.376319
PR15  -6752.746130 -23336.533217   7790.301552     85.580146
PR16 -11210.084688  -9449.544940  20876.024800     19.405900
PR17   1394.481494 -10846.665722  23059.865777     23.596327
PR18 -14648.697587 -14107.622107  15389.133747    105.633926
PR19 -22714.337329 -11554.217511   1276.154121   -249.999222
PR20 -18217.733707     -4.069626 -17828.114630   -101.331155
PR21   -611.335955  11064.330071 -22967.907331    -43.671823
PR22  14953.149121  14774.105500 -14425.348802     87.545829
PR24  17946.906439  -1417.534819  18079.067606    -27.265277
PR25  -2085.099103  11007.358236 -22906.706859     29.297495
PR26   2818.883126  11287.992213  22715.919792    -21.474736
EOF
